COSMOS 2433 (720)       
1 32275U 07052A   23028.59304797 -.00000070  00000+0  00000+0 0  9998
2 32275  66.0642 357.1972 0004839 270.3584 270.1236  2.13104076118760
COSMOS 2432 (719)       
1 32276U 07052B   23028.65990350 -.00000070  00000+0  00000+0 0  9992
2 32276  66.0791 357.2998 0012013 319.8227 219.6165  2.13103378118764
COSMOS 2434 (721)       
1 32393U 07065A   23028.16863142  .00000077  00000+0  00000+0 0  9996
2 32393  64.3536 233.7636 0004942  73.9018  31.3323  2.13103112117464
COSMOS 2436 (723)       
1 32395U 07065C   23028.11684531  .00000077  00000+0  00000+0 0  9996
2 32395  64.3614 233.8256 0017027   7.6074 193.5700  2.13102872117390
COSMOS 2456 (730)       
1 36111U 09070A   23028.34056093 -.00000034  00000+0  00000+0 0  9999
2 36111  64.4166 113.3296 0003151 298.1659 101.3572  2.13099119102137
COSMOS 2457 (733)       
1 36112U 09070B   23028.67355574 -.00000038  00000+0  00000+0 0  9996
2 36112  64.4008 113.1886 0005619 168.4290 255.6305  2.13101296102145
COSMOS 2460 (732)       
1 36402U 10007C   23028.37566228 -.00000071  00000+0  00000+0 0  9994
2 36402  65.9316 355.9566 0002700 295.5980 245.8298  2.13106362100488
COSMOS 2476 (744)       
1 37867U 11064A   23028.40396424 -.00000033  00000+0  00000+0 0  9995
2 37867  64.7011 114.7709 0022351 234.3578 121.2437  2.13101772 87476
COSMOS 2477 (745)       
1 37868U 11064B   23028.64848488 -.00000036  00000+0  00000+0 0  9997
2 37868  64.7077 114.8295 0019962 236.3071 124.8665  2.13101492 87442
COSMOS 2475 (743)       
1 37869U 11064C   23028.24407916 -.00000031  00000+0  00000+0 0  9996
2 37869  64.7162 114.8535 0023818 252.1396 117.0296  2.13101783 87443
COSMOS 2485 (747)       
1 39155U 13019A   23028.40440169 -.00000032  00000+0  00000+0 0  9994
2 39155  64.8631 115.2476 0022810 229.8758 170.4452  2.13101822 75952
COSMOS 2492 (754)       
1 39620U 14012A   23028.40787367 -.00000071  00000+0  00000+0 0  9992
2 39620  65.8163 355.6053 0015116 317.6194 119.6774  2.13103228 68903
COSMOS 2500 (755)       
1 40001U 14032A   23028.66419927 -.00000072  00000+0  00000+0 0  9992
2 40001  65.7557 355.4410 0006662 225.2966 266.6648  2.13102395 67126
COSMOS 2501 (702K)      
1 40315U 14075A   23028.50287177  .00000081  00000+0  00000+0 0  9999
2 40315  63.6585 233.2982 0017009 204.5211 332.7599  2.13101378 63529
COSMOS 2514 (751)       
1 41330U 16008A   23028.72118957 -.00000073  00000+0  00000+0 0  9990
2 41330  65.5549 355.0748 0010215 226.4718 133.4404  2.13102610 54293
COSMOS 2516 (753)       
1 41554U 16032A   23025.55724995  .00000058  00000+0  00000+0 0  9990
2 41554  63.8853 233.7396 0013934 212.0750 147.8864  2.13106403 51839
COSMOS 2522 (752)       
1 42939U 17055A   23028.36752131  .00000079  00000+0  00000+0 0  9992
2 42939  64.1197 234.1039 0005125 239.3058 329.7464  2.13102017 41649
COSMOS 2527 (756)       
1 43508U 18053A   23028.59526646 -.00000034  00000+0  00000+0 0  9991
2 43508  65.0256 115.2880 0008865 226.5819 189.1614  2.13102516 35943
COSMOS 2529 (757)       
1 43687U 18086A   23028.62015133  .00000081  00000+0  00000+0 0  9994
2 43687  64.3351 234.4720 0007109 272.2841  86.0548  2.13102102 32959
COSMOS 2534 (758)       
1 44299U 19030A   23028.91418514  .00000085  00000+0  00000+0 0  9990
2 44299  64.4069 234.3669 0010076 296.2806  61.9873  2.13101840 28609
COSMOS 2544 (759)       
1 44850U 19088A   23027.44072586 -.00000019  00000+0  16595+1 0  9993
2 44850  65.0094 115.1760 0012753 253.6243  39.6746  2.13102290 24349
COSMOS 2545 (760)       
1 45358U 20018A   23028.73768350 -.00000075  00000+0  00000+0 0  9991
2 45358  64.8939 355.4982 0011055 257.4622 160.0272  2.13102667 22338
COSMOS 2547 (705K)      
1 46805U 20075A   23028.15457595  .00000077  00000+0  00000+0 0  9995
2 46805  64.6320 233.8842 0005237 242.7705 301.2059  2.13103044 17567
COSMOS 2557 (706K)      
1 52984U 22075A   23027.82795711 -.00000070  00000+0  10000-3 0  9999
2 52984  64.8031 357.7127 0014086 284.1182 246.1958  2.13101993  4355
COSMOS 2559 (707K)      
1 54031U 22130A   23028.63811089 -.00000073  00000+0  00000+0 0  9991
2 54031  64.7743 357.8206 0006941 237.6006 239.4344  2.13101032  2353
COSMOS 2564 (761)       
1 54377U 22161A   23027.81924267  .00000074  00000+0  00000+0 0  9990
2 54377  64.7725 233.9089 0006569 210.3443 208.8242  2.13102155  1283
